HST                     
1 20580U 90037B   23123.34271163  .00004200  00000+0  22192-3 0  9996
2 20580  28.4688 206.3173 0002141 246.7432 171.1705 15.12926147614664
POLAR                   
1 23802U 96013A   23123.40536721  .00000212  00000+0  00000+0 0  9996
2 23802  78.8793 238.5282 5764976 247.8788  43.2584  1.29847083130043
SWAS                    
1 25560U 98071A   23123.56966318  .00003642  00000+0  32654-3 0  9995
2 25560  69.8990 258.7528 0009133 215.4170 144.6382 14.96641881325886
CXO                     
1 25867U 99040B   23125.65058234  .00000907  00000+0  00000+0 0  9990
2 25867  38.0106 202.2774 9042564 257.9517 359.9085  0.37818091 13019
XMM-NEWTON              
1 25989U 99066A   23124.59979053  .00000000  00000+0  00000+0 0  9990
2 25989  69.2200 299.1356 5605238  82.9700 359.9351  0.50132235 17288
TERRA                   
1 25994U 99068A   23123.56391373  .00000606  00000+0  13800-3 0  9995
2 25994  98.0964 193.0480 0001640 158.6708 308.7557 14.59197684243152
CLUSTER II-FM7 (SAMBA)  
1 26410U 00041A   23125.01059899  .00000551  00000+0  00000+0 0  9991
2 26410 135.8588 351.3765 6411979 205.0766   0.6667  0.44225463 15232
CLUSTER II-FM6 (SALSA)  
1 26411U 00041B   23122.74385824  .00000356  00000+0  00000+0 0  9992
2 26411 140.2245 358.7118 8102585 212.4221   1.1894  0.44216725 15280
CLUSTER II-FM5 (RUMBA)  
1 26463U 00045A   23125.01674647  .00000725  00000+0  00000+0 0  9990
2 26463 143.4757 358.8076 7600111 213.2701   0.8413  0.44222611 15175
CLUSTER II-FM8 (TANGO)  
1 26464U 00045B   23120.48712001  .00000260  00000+0  00000+0 0  9998
2 26464 135.8313 351.3064 6404501 205.0092   0.5923  0.44222666 15229
ODIN                    
1 26702U 01007A   23123.56391157  .00005699  00000+0  31973-3 0  9997
2 26702  97.5062 137.8692 0008073 261.7226  98.3090 15.13724163214625
TIMED                   
1 26998U 01055B   23123.38669146  .00001415  00000+0  15193-3 0  9991
2 26998  74.0732   1.9149 0001648 199.0669 161.0451 14.89628202160627
INTEGRAL                
1 27540U 02048A   23121.48311912  .00000536  00000+0  00000+0 0  9992
2 27540  83.0217  41.2388 8787674 292.6697 344.1116  0.37571910 22338
CORIOLIS                
1 27640U 03001A   23123.52713693  .00000131  00000+0  83279-4 0  9997
2 27640  98.7162 132.3495 0012989 255.7300 104.2434 14.19250965 52380
SORCE                   
1 27651U 03004A   23123.39583303  .00002867  00000+0  29230-3 0  9994
2 27651  39.9940 229.2455 0020873 207.7582 152.2095 14.91735355100825
MOST                    
1 27843U 03031D   23123.58257917  .00000112  00000+0  72140-4 0  9997
2 27843  98.7081 131.4983 0009019 309.0140  51.0234 14.20787800 28714
SCISAT 1                
1 27858U 03036A   23123.58419846  .00000972  00000+0  13906-3 0  9997
2 27858  73.9317 271.8060 0008707 240.2289 119.8020 14.78144132 62728
SWIFT                   
1 28485U 04047A   23123.40666741  .00007068  00000+0  39042-3 0  9998
2 28485  20.5560 219.3691 0009994  47.9186 312.2098 15.10317070 11837
CLOUDSAT                
1 29107U 06016A   23123.54924373  .00000520  00000+0  10870-3 0  9995
2 29107  98.3719  92.6113 0003926  45.6188 314.5334 14.63988053905848
CALIPSO                 
1 29108U 06016B   23123.54892465  .00001610  00000+0  31670-3 0  9994
2 29108  98.3720  92.0965 0001493  86.4626 273.6747 14.63987368905837
HINODE (SOLAR-B)        
1 29479U 06041A   23123.55736091  .00000957  00000+0  18564-3 0  9996
2 29479  98.1083 139.5296 0016908 299.5665  60.3853 14.65384017887628
SJ-6C                   
1 29505U 06046A   23123.53683955  .00004476  00000+0  37929-3 0  9995
2 29505  97.7524 147.4639 0005792 127.3098 232.8673 14.98471306900580
SJ-6D                   
1 29506U 06046B   23123.53852511  .00002236  00000+0  20952-3 0  9992
2 29506  97.7732 147.1489 0001517 183.2726 176.8496 14.95052669899943
AGILE                   
1 31135U 07013A   23123.53721083  .00031127  00000+0  49126-3 0  9992
2 31135   2.4666 210.7894 0007562 134.5736 225.4936 15.50810186526468
AIM                     
1 31304U 07015A   23123.36442601  .00017664  00000+0  64590-3 0  9991
2 31304  97.8693  61.5485 0003504  24.0600 336.0802 15.28139804879836
FGRST (GLAST)           
1 33053U 08029A   23123.41512875  .00002723  00000+0  13017-3 0  9995
2 33053  25.5813 143.3122 0011206 292.0727  67.8619 15.13837662822208
WISE                    
1 36119U 09071A   23123.53868443  .00013421  00000+0  33052-3 0  9995
2 36119  97.2000 157.0518 0001722 162.7217 197.4088 15.40702004744640
SDO                     
1 36395U 10005A   23123.46590819 -.00000026  00000+0  00000+0 0  9992
2 36395  32.2879 104.0691 0001893 246.5913 296.3921  1.00272918 48623
CRYOSAT 2               
1 36508U 10013A   23123.59343775  .00000187  00000+0  45623-4 0  9990
2 36508  92.0252   1.6374 0002197 207.6715 152.4376 14.51906674692628
X-SAT                   
1 37389U 11015C   23123.46146824  .00000163  00000+0  87511-4 0  9999
2 37389  98.3056 144.9525 0015494  93.0715 267.2247 14.24517736625767
GCOM-W1 (SHIZUKU)       
1 38337U 12025A   23123.44221279  .00000781  00000+0  18328-3 0  9996
2 38337  98.1980  64.4238 0002429  57.1451  56.0716 14.57125556582919
NUSTAR                  
1 38358U 12031A   23122.68621999  .00004944  00000+0  40769-3 0  9993
2 38358   6.0250 197.9712 0011847 273.1870  86.6903 14.91641199592550
NEOSSAT                 
1 39089U 13009D   23123.49280141  .00000246  00000+0  10156-3 0  9999
2 39089  98.4118 316.6305 0012169  49.7002 310.5245 14.34852178533102
BRITE-AUSTRIA           
1 39091U 13009F   23123.53101635  .00000260  00000+0  10516-3 0  9993
2 39091  98.3937 317.3350 0011329  49.1421 311.0745 14.35464053533357
IRIS                    
1 39197U 13033A   23123.52636465  .00001384  00000+0  18773-3 0  9991
2 39197  97.9708 311.7479 0028347  74.1946 286.2388 14.80233985531322
HISAKI (SPRINT-A)       
1 39253U 13049A   23123.51562315  .00000116  00000+0  70090-4 0  9995
2 39253  29.7191 258.2195 0136673 130.8087 230.4427 13.55321090476556
CASSIOPE                
1 39265U 13055A   23123.44983679  .00020397  00000+0  49566-3 0  9993
2 39265  80.9573 285.5345 0576720  83.0400 283.6003 14.50338633498495
STSAT-3                 
1 39422U 13066G   23123.59365023  .00002007  00000+0  20236-3 0  9994
2 39422  97.4849 116.9756 0020498 296.1513  63.7602 14.92028101513548
SWARM B                 
1 39451U 13067A   23123.54978003  .00003349  00000+0  14243-3 0  9991
2 39451  87.7471 325.4939 0002786  97.9624 262.1938 15.22678638509590
SWARM A                 
1 39452U 13067B   23123.50760075  .00007111  00000+0  20901-3 0  9995
2 39452  87.3517 109.9483 0002956  97.6831 262.4757 15.34923082531049
SWARM C                 
1 39453U 13067C   23123.50646438  .00007153  00000+0  21030-3 0  9992
2 39453  87.3367 108.7655 0002958  98.1316 262.0272 15.34916475531009
BRITE-CA1 (TORONTO)     
1 40020U 14033L   23123.37264756  .00000931  00000+0  16281-3 0  9991
2 40020  97.8196 271.9677 0084622 323.9210  35.6303 14.67875746474571
OCO 2                   
1 40059U 14035A   23123.55417626  .00000684  00000+0  16183-3 0  9997
2 40059  98.1984  65.2813 0001360 101.6239 258.5112 14.57082950469943
BRITE-PL2 (HEWELIUSZ)   
1 40119U 14049B   23123.27777104  .00002148  00000+0  24918-3 0  9990
2 40119  97.8781 220.7805 0015289 274.7388  85.2081 14.86397225471491
RESURS P2               
1 40360U 14087A   23123.54178888  .00011766  00000+0  27120-3 0  9998
2 40360  97.1809 207.6568 0008351  23.0998 104.4923 15.42701503467481
MMS 1                   
1 40482U 15011A   23123.62500000 -.00000031  00000+0  00000+0 0  9993
2 40482  28.9741  70.6656 9078992  89.7089 173.8774  0.28569305 14208
MMS 2                   
1 40483U 15011B   23123.62500000 -.00000031  00000+0  00000+0 0  9994
2 40483  28.9648  70.6502 9079169  89.7148 173.8817  0.28567413 14181
MMS 3                   
1 40484U 15011C   23123.62500000 -.00000031  00000+0  00000+0 0  9995
2 40484  28.9697  70.6686 9079511  89.7014 173.8925  0.28569293 14180
MMS 4                   
1 40485U 15011D   23123.62500000 -.00000031  00000+0  00000+0 0  9996
2 40485  28.9645  70.6577 9079729  89.7155 173.8656  0.28567428 14189
ASTROSAT                
1 40930U 15052A   23123.28350076  .00002029  00000+0  19008-3 0  9994
2 40930   5.9975  56.3172 0008504   0.5711 359.4426 14.77465554410510
DAMPE                   
1 41173U 15078A   23123.52610912  .00001615  00000+0  66630-4 0  9991
2 41173  97.4038 115.0942 0014124 145.7554 330.1262 15.25412965410354
PISAT                   
1 41784U 16059B   23123.58399963  .00001027  00000+0  20093-3 0  9994
2 41784  97.8738 158.8377 0030171 234.7171 125.1210 14.64596422352537
HXMT (HUIYAN)           
1 42758U 17034A   23123.58977777  .00006939  00000+0  40341-3 0  9990
2 42758  43.0179  24.9256 0007072 117.6664 310.8326 15.12533891324625
FLYING LAPTOP           
1 42831U 17042G   23123.52068904  .00002247  00000+0  22117-3 0  9997
2 42831  97.3957 323.9573 0014034  23.2171 336.9700 14.92947686315823
PICSAT                  
1 43132U 18004X   23123.45338882  .00054411  00000+0  89735-3 0  9997
2 43132  97.3320 205.5760 0004538 263.7481  96.3255 15.52111635295595
ZHANGZHENG-1 (CSES)     
1 43194U 18015C   23123.54163404  .00013185  00000+0  60130-3 0  9994
2 43194  97.5577 259.5769 0006260 131.5047 297.2512 15.20748975291278
ICON                    
1 44628U 19068A   23123.39727785  .00003243  00000+0  26963-3 0  9997
2 44628  26.9896  14.8190 0017474 233.2591 126.6363 14.95095722194451
SALSAT                  
1 46495U 20068K   23123.45051083  .00004515  00000+0  30261-3 0  9990
2 46495  97.7675  71.0034 0013649 272.7722  87.1942 15.07327471142339
IXPE                    
1 49954U 21121A   23122.54336499  .00004691  00000+0  35981-3 0  9999
2 49954   0.2290 196.5467 0010544 309.7281 213.7919 14.93639664 76183
